<?xml version="1.0" encoding="UTF-8"?>
<ndm xmlns:xsi="http://www.w3.org/2001/XMLSchema-instance" xsi:noNamespaceSchemaLocation="https://sanaregistry.org/r/ndmxml_unqualified/ndmxml-2.0.0-master-2.0.xsd">
<omm id="CCSDS_OMM_VERS" version="2.0">
<header><CREATION_DATE/><ORIGINATOR/></header><body><segment><metadata><OBJECT_NAME>KUIPER-00095</OBJECT_NAME><OBJECT_ID>2025-171C</OBJECT_ID><CENTER_NAME>EARTH</CENTER_NAME><REF_FRAME>TEME</REF_FRAME><TIME_SYSTEM>UTC</TIME_SYSTEM><MEAN_ELEMENT_THEORY>SGP4</MEAN_ELEMENT_THEORY></metadata><data><meanElements><EPOCH>2025-12-31T14:41:45.565152</EPOCH><MEAN_MOTION>14.95982076</MEAN_MOTION><ECCENTRICITY>.00044212</ECCENTRICITY><INCLINATION>51.8922</INCLINATION><RA_OF_ASC_NODE>89.8442</RA_OF_ASC_NODE><ARG_OF_PERICENTER>259.9554</ARG_OF_PERICENTER><MEAN_ANOMALY>100.0917</MEAN_ANOMALY></meanElements><tleParameters><EPHEMERIS_TYPE>0</EPHEMERIS_TYPE><CLASSIFICATION_TYPE>U</CLASSIFICATION_TYPE><NORAD_CAT_ID>65134</NORAD_CAT_ID><ELEMENT_SET_NO>999</ELEMENT_SET_NO><REV_AT_EPOCH>2294</REV_AT_EPOCH><BSTAR>.11482354E-2</BSTAR><MEAN_MOTION_DOT>.1278E-3</MEAN_MOTION_DOT><MEAN_MOTION_DDOT>0</MEAN_MOTION_DDOT></tleParameters></data></segment></body></omm>
<omm id="CCSDS_OMM_VERS" version="2.0">
<header><CREATION_DATE/><ORIGINATOR/></header><body><segment><metadata><OBJECT_NAME>KUIPER-00096</OBJECT_NAME><OBJECT_ID>2025-171D</OBJECT_ID><CENTER_NAME>EARTH</CENTER_NAME><REF_FRAME>TEME</REF_FRAME><TIME_SYSTEM>UTC</TIME_SYSTEM><MEAN_ELEMENT_THEORY>SGP4</MEAN_ELEMENT_THEORY></metadata><data><meanElements><EPOCH>2025-12-31T11:19:56.574048</EPOCH><MEAN_MOTION>14.79923488</MEAN_MOTION><ECCENTRICITY>.00099827</ECCENTRICITY><INCLINATION>51.8998</INCLINATION><RA_OF_ASC_NODE>99.7424</RA_OF_ASC_NODE><ARG_OF_PERICENTER>284.9648</ARG_OF_PERICENTER><MEAN_ANOMALY>75.0209</MEAN_ANOMALY></meanElements><tleParameters><EPHEMERIS_TYPE>0</EPHEMERIS_TYPE><CLASSIFICATION_TYPE>U</CLASSIFICATION_TYPE><NORAD_CAT_ID>65135</NORAD_CAT_ID><ELEMENT_SET_NO>999</ELEMENT_SET_NO><REV_AT_EPOCH>2279</REV_AT_EPOCH><BSTAR>.14073655E-2</BSTAR><MEAN_MOTION_DOT>.10528E-3</MEAN_MOTION_DOT><MEAN_MOTION_DDOT>0</MEAN_MOTION_DDOT></tleParameters></data></segment></body></omm>
<omm id="CCSDS_OMM_VERS" version="2.0">
<header><CREATION_DATE/><ORIGINATOR/></header><body><segment><metadata><OBJECT_NAME>KUIPER-00097</OBJECT_NAME><OBJECT_ID>2025-171E</OBJECT_ID><CENTER_NAME>EARTH</CENTER_NAME><REF_FRAME>TEME</REF_FRAME><TIME_SYSTEM>UTC</TIME_SYSTEM><MEAN_ELEMENT_THEORY>SGP4</MEAN_ELEMENT_THEORY></metadata><data><meanElements><EPOCH>2025-12-31T06:24:24.092064</EPOCH><MEAN_MOTION>14.79952787</MEAN_MOTION><ECCENTRICITY>.0009751</ECCENTRICITY><INCLINATION>51.9013</INCLINATION><RA_OF_ASC_NODE>103.2662</RA_OF_ASC_NODE><ARG_OF_PERICENTER>283.8835</ARG_OF_PERICENTER><MEAN_ANOMALY>76.1042</MEAN_ANOMALY></meanElements><tleParameters><EPHEMERIS_TYPE>0</EPHEMERIS_TYPE><CLASSIFICATION_TYPE>U</CLASSIFICATION_TYPE><NORAD_CAT_ID>65136</NORAD_CAT_ID><ELEMENT_SET_NO>999</ELEMENT_SET_NO><REV_AT_EPOCH>2271</REV_AT_EPOCH><BSTAR>.24138E-2</BSTAR><MEAN_MOTION_DOT>.18251E-3</MEAN_MOTION_DOT><MEAN_MOTION_DDOT>0</MEAN_MOTION_DDOT></tleParameters></data></segment></body></omm>
<omm id="CCSDS_OMM_VERS" version="2.0">
<header><CREATION_DATE/><ORIGINATOR/></header><body><segment><metadata><OBJECT_NAME>KUIPER-00098</OBJECT_NAME><OBJECT_ID>2025-171F</OBJECT_ID><CENTER_NAME>EARTH</CENTER_NAME><REF_FRAME>TEME</REF_FRAME><TIME_SYSTEM>UTC</TIME_SYSTEM><MEAN_ELEMENT_THEORY>SGP4</MEAN_ELEMENT_THEORY></metadata><data><meanElements><EPOCH>2025-12-31T11:12:01.422432</EPOCH><MEAN_MOTION>14.79987208</MEAN_MOTION><ECCENTRICITY>.00068918</ECCENTRICITY><INCLINATION>51.9008</INCLINATION><RA_OF_ASC_NODE>104.7682</RA_OF_ASC_NODE><ARG_OF_PERICENTER>269.6294</ARG_OF_PERICENTER><MEAN_ANOMALY>90.3878</MEAN_ANOMALY></meanElements><tleParameters><EPHEMERIS_TYPE>0</EPHEMERIS_TYPE><CLASSIFICATION_TYPE>U</CLASSIFICATION_TYPE><NORAD_CAT_ID>65137</NORAD_CAT_ID><ELEMENT_SET_NO>999</ELEMENT_SET_NO><REV_AT_EPOCH>2206</REV_AT_EPOCH><BSTAR>.12872804E-2</BSTAR><MEAN_MOTION_DOT>.9621E-4</MEAN_MOTION_DOT><MEAN_MOTION_DDOT>0</MEAN_MOTION_DDOT></tleParameters></data></segment></body></omm>
<omm id="CCSDS_OMM_VERS" version="2.0">
<header><CREATION_DATE/><ORIGINATOR/></header><body><segment><metadata><OBJECT_NAME>KUIPER-00099</OBJECT_NAME><OBJECT_ID>2025-171G</OBJECT_ID><CENTER_NAME>EARTH</CENTER_NAME><REF_FRAME>TEME</REF_FRAME><TIME_SYSTEM>UTC</TIME_SYSTEM><MEAN_ELEMENT_THEORY>SGP4</MEAN_ELEMENT_THEORY></metadata><data><meanElements><EPOCH>2025-12-31T10:39:01.807488</EPOCH><MEAN_MOTION>14.79957513</MEAN_MOTION><ECCENTRICITY>.00004272</ECCENTRICITY><INCLINATION>51.9041</INCLINATION><RA_OF_ASC_NODE>94.8384</RA_OF_ASC_NODE><ARG_OF_PERICENTER>60.2988</ARG_OF_PERICENTER><MEAN_ANOMALY>299.8017</MEAN_ANOMALY></meanElements><tleParameters><EPHEMERIS_TYPE>0</EPHEMERIS_TYPE><CLASSIFICATION_TYPE>U</CLASSIFICATION_TYPE><NORAD_CAT_ID>65138</NORAD_CAT_ID><ELEMENT_SET_NO>999</ELEMENT_SET_NO><REV_AT_EPOCH>2285</REV_AT_EPOCH><BSTAR>.48879146E-3</BSTAR><MEAN_MOTION_DOT>.3509E-4</MEAN_MOTION_DOT><MEAN_MOTION_DDOT>0</MEAN_MOTION_DDOT></tleParameters></data></segment></body></omm>
<omm id="CCSDS_OMM_VERS" version="2.0">
<header><CREATION_DATE/><ORIGINATOR/></header><body><segment><metadata><OBJECT_NAME>KUIPER-00100</OBJECT_NAME><OBJECT_ID>2025-171H</OBJECT_ID><CENTER_NAME>EARTH</CENTER_NAME><REF_FRAME>TEME</REF_FRAME><TIME_SYSTEM>UTC</TIME_SYSTEM><MEAN_ELEMENT_THEORY>SGP4</MEAN_ELEMENT_THEORY></metadata><data><meanElements><EPOCH>2026-01-01T00:00:02.998944</EPOCH><MEAN_MOTION>14.78850903</MEAN_MOTION><ECCENTRICITY>.0000658</ECCENTRICITY><INCLINATION>51.9007</INCLINATION><RA_OF_ASC_NODE>89.7740</RA_OF_ASC_NODE><ARG_OF_PERICENTER>140.0786</ARG_OF_PERICENTER><MEAN_ANOMALY>159.2682</MEAN_ANOMALY></meanElements><tleParameters><EPHEMERIS_TYPE>0</EPHEMERIS_TYPE><CLASSIFICATION_TYPE>U</CLASSIFICATION_TYPE><NORAD_CAT_ID>65139</NORAD_CAT_ID><ELEMENT_SET_NO>999</ELEMENT_SET_NO><REV_AT_EPOCH>498</REV_AT_EPOCH><BSTAR>-.96951E-3</BSTAR><MEAN_MOTION_DOT>-.7414E-4</MEAN_MOTION_DOT><MEAN_MOTION_DDOT>0</MEAN_MOTION_DDOT></tleParameters></data></segment></body></omm>
<omm id="CCSDS_OMM_VERS" version="2.0">
<header><CREATION_DATE/><ORIGINATOR/></header><body><segment><metadata><OBJECT_NAME>KUIPER-00102</OBJECT_NAME><OBJECT_ID>2025-171J</OBJECT_ID><CENTER_NAME>EARTH</CENTER_NAME><REF_FRAME>TEME</REF_FRAME><TIME_SYSTEM>UTC</TIME_SYSTEM><MEAN_ELEMENT_THEORY>SGP4</MEAN_ELEMENT_THEORY></metadata><data><meanElements><EPOCH>2025-12-31T13:04:56.520768</EPOCH><MEAN_MOTION>14.79972812</MEAN_MOTION><ECCENTRICITY>.00007232</ECCENTRICITY><INCLINATION>51.8985</INCLINATION><RA_OF_ASC_NODE>94.4227</RA_OF_ASC_NODE><ARG_OF_PERICENTER>108.1492</ARG_OF_PERICENTER><MEAN_ANOMALY>251.9549</MEAN_ANOMALY></meanElements><tleParameters><EPHEMERIS_TYPE>0</EPHEMERIS_TYPE><CLASSIFICATION_TYPE>U</CLASSIFICATION_TYPE><NORAD_CAT_ID>65140</NORAD_CAT_ID><ELEMENT_SET_NO>999</ELEMENT_SET_NO><REV_AT_EPOCH>2286</REV_AT_EPOCH><BSTAR>.13088084E-2</BSTAR><MEAN_MOTION_DOT>.978E-4</MEAN_MOTION_DOT><MEAN_MOTION_DDOT>0</MEAN_MOTION_DDOT></tleParameters></data></segment></body></omm>
<omm id="CCSDS_OMM_VERS" version="2.0">
<header><CREATION_DATE/><ORIGINATOR/></header><body><segment><metadata><OBJECT_NAME>KUIPER-00103</OBJECT_NAME><OBJECT_ID>2025-171K</OBJECT_ID><CENTER_NAME>EARTH</CENTER_NAME><REF_FRAME>TEME</REF_FRAME><TIME_SYSTEM>UTC</TIME_SYSTEM><MEAN_ELEMENT_THEORY>SGP4</MEAN_ELEMENT_THEORY></metadata><data><meanElements><EPOCH>2025-12-31T21:32:34.578816</EPOCH><MEAN_MOTION>14.79940172</MEAN_MOTION><ECCENTRICITY>.0005388</ECCENTRICITY><INCLINATION>51.9003</INCLINATION><RA_OF_ASC_NODE>110.3557</RA_OF_ASC_NODE><ARG_OF_PERICENTER>276.5645</ARG_OF_PERICENTER><MEAN_ANOMALY>83.4704</MEAN_ANOMALY></meanElements><tleParameters><EPHEMERIS_TYPE>0</EPHEMERIS_TYPE><CLASSIFICATION_TYPE>U</CLASSIFICATION_TYPE><NORAD_CAT_ID>65141</NORAD_CAT_ID><ELEMENT_SET_NO>999</ELEMENT_SET_NO><REV_AT_EPOCH>2267</REV_AT_EPOCH><BSTAR>.58533E-3</BSTAR><MEAN_MOTION_DOT>.4244E-4</MEAN_MOTION_DOT><MEAN_MOTION_DDOT>0</MEAN_MOTION_DDOT></tleParameters></data></segment></body></omm>

</ndm>
