KUIPER-00095            
1 65134U 25171C   25365.61233293  .00012780  00000+0  11482-2 0  9990
2 65134  51.8922  89.8442 0004421 259.9554 100.0917 14.95982076 22949
KUIPER-00096            
1 65135U 25171D   25365.47218257  .00010528  00000+0  14074-2 0  9996
2 65135  51.8998  99.7424 0009982 284.9648  75.0209 14.79923488 22794
KUIPER-00097            
1 65136U 25171E   25365.26694551  .00018251  00000+0  24138-2 0  9992
2 65136  51.9013 103.2662 0009751 283.8835  76.1042 14.79952787 22712
KUIPER-00098            
1 65137U 25171F   25365.46668313  .00009621  00000+0  12873-2 0  9996
2 65137  51.9008 104.7682 0006891 269.6294  90.3878 14.79987208 22067
KUIPER-00099            
1 65138U 25171G   25365.44377092  .00003509  00000+0  48879-3 0  9991
2 65138  51.9041  94.8384 0000427  60.2988 299.8017 14.79957513 22851
KUIPER-00100            
1 65139U 25171H   26001.00003472 -.00007414  00000+0 -96951-3 0  9995
2 65139  51.9007  89.7740 0000658 140.0786 159.2682 14.78850903  4987
KUIPER-00102            
1 65140U 25171J   25365.54509862  .00009780  00000+0  13088-2 0  9997
2 65140  51.8985  94.4227 0000723 108.1492 251.9549 14.79972812 22862
KUIPER-00103            
1 65141U 25171K   25365.89762245  .00004244  00000+0  58533-3 0  9997
2 65141  51.9003 110.3557 0005388 276.5645  83.4704 14.79940172 22675
